[{"OBJECT_NAME":"STARLINK-30824","OBJECT_ID":"2023-167B","EPOCH":"2026-03-23T10:08:57.962976","MEAN_MOTION":15.27566379,"ECCENTRICITY":7.87e-5,"INCLINATION":43.0028,"RA_OF_ASC_NODE":65.9999,"ARG_OF_PERICENTER":208.5369,"MEAN_ANOMALY":151.544,"EPHEMERIS_TYPE":0,"CLASSIFICATION_TYPE":"U","NORAD_CAT_ID":58176,"ELEMENT_SET_NO":999,"REV_AT_EPOCH":13308,"BSTAR":-6.1594e-5,"MEAN_MOTION_DOT":-1.956e-5,"MEAN_MOTION_DDOT":0},{"OBJECT_NAME":"STARLINK-30791","OBJECT_ID":"2023-167C","EPOCH":"2026-03-23T06:04:59.634336","MEAN_MOTION":15.26734197,"ECCENTRICITY":9.7e-5,"INCLINATION":43.0009,"RA_OF_ASC_NODE":66.4334,"ARG_OF_PERICENTER":284.7862,"MEAN_ANOMALY":75.2882,"EPHEMERIS_TYPE":0,"CLASSIFICATION_TYPE":"U","NORAD_CAT_ID":58177,"ELEMENT_SET_NO":999,"REV_AT_EPOCH":13306,"BSTAR":-7.6335e-5,"MEAN_MOTION_DOT":-2.306e-5,"MEAN_MOTION_DDOT":0},{"OBJECT_NAME":"STARLINK-30810","OBJECT_ID":"2023-167D","EPOCH":"2026-03-23T10:42:03.198240","MEAN_MOTION":15.27570702,"ECCENTRICITY":7.64e-5,"INCLINATION":43.002,"RA_OF_ASC_NODE":65.3084,"ARG_OF_PERICENTER":287.4462,"MEAN_ANOMALY":72.6306,"EPHEMERIS_TYPE":0,"CLASSIFICATION_TYPE":"U","NORAD_CAT_ID":58178,"ELEMENT_SET_NO":999,"REV_AT_EPOCH":13309,"BSTAR":-2.5165e-5,"MEAN_MOTION_DOT":-9.54e-6,"MEAN_MOTION_DDOT":0},{"OBJECT_NAME":"STARLINK-30819","OBJECT_ID":"2023-167E","EPOCH":"2026-03-23T09:54:09.800352","MEAN_MOTION":15.27582523,"ECCENTRICITY":0.00015,"INCLINATION":43.0068,"RA_OF_ASC_NODE":65.9177,"ARG_OF_PERICENTER":259.7662,"MEAN_ANOMALY":100.302,"EPHEMERIS_TYPE":0,"CLASSIFICATION_TYPE":"U","NORAD_CAT_ID":58179,"ELEMENT_SET_NO":999,"REV_AT_EPOCH":13308,"BSTAR":-5.0921e-5,"MEAN_MOTION_DOT":-1.663e-5,"MEAN_MOTION_DDOT":0},{"OBJECT_NAME":"STARLINK-30806","OBJECT_ID":"2023-167F","EPOCH":"2026-03-22T16:31:02.918208","MEAN_MOTION":15.27574336,"ECCENTRICITY":0.00015041,"INCLINATION":43.0051,"RA_OF_ASC_NODE":69.935,"ARG_OF_PERICENTER":261.6444,"MEAN_ANOMALY":98.4237,"EPHEMERIS_TYPE":0,"CLASSIFICATION_TYPE":"U","NORAD_CAT_ID":58180,"ELEMENT_SET_NO":999,"REV_AT_EPOCH":13297,"BSTAR":-3.4636385e-5,"MEAN_MOTION_DOT":-1.215e-5,"MEAN_MOTION_DDOT":0},{"OBJECT_NAME":"STARLINK-30821","OBJECT_ID":"2023-167G","EPOCH":"2026-03-22T22:38:24.296928","MEAN_MOTION":15.27576056,"ECCENTRICITY":0.00016908,"INCLINATION":43.0075,"RA_OF_ASC_NODE":68.4077,"ARG_OF_PERICENTER":277.1166,"MEAN_ANOMALY":82.9494,"EPHEMERIS_TYPE":0,"CLASSIFICATION_TYPE":"U","NORAD_CAT_ID":58181,"ELEMENT_SET_NO":999,"REV_AT_EPOCH":13300,"BSTAR":9.552193e-5,"MEAN_MOTION_DOT":2.367e-5,"MEAN_MOTION_DDOT":0},{"OBJECT_NAME":"STARLINK-30778","OBJECT_ID":"2023-167H","EPOCH":"2026-03-23T09:41:11.877216","MEAN_MOTION":15.27568297,"ECCENTRICITY":9.31e-5,"INCLINATION":43.0035,"RA_OF_ASC_NODE":65.8456,"ARG_OF_PERICENTER":285.3343,"MEAN_ANOMALY":74.7406,"EPHEMERIS_TYPE":0,"CLASSIFICATION_TYPE":"U","NORAD_CAT_ID":58182,"ELEMENT_SET_NO":999,"REV_AT_EPOCH":13308,"BSTAR":-5.712e-5,"MEAN_MOTION_DOT":-1.833e-5,"MEAN_MOTION_DDOT":0},{"OBJECT_NAME":"STARLINK-30809","OBJECT_ID":"2023-167J","EPOCH":"2026-03-22T06:16:20.437824","MEAN_MOTION":15.27567085,"ECCENTRICITY":0.00019801,"INCLINATION":42.9999,"RA_OF_ASC_NODE":72.748,"ARG_OF_PERICENTER":266.9504,"MEAN_ANOMALY":93.1121,"EPHEMERIS_TYPE":0,"CLASSIFICATION_TYPE":"U","NORAD_CAT_ID":58183,"ELEMENT_SET_NO":999,"REV_AT_EPOCH":13290,"BSTAR":-7.240764e-5,"MEAN_MOTION_DOT":-2.254e-5,"MEAN_MOTION_DDOT":0},{"OBJECT_NAME":"STARLINK-30801","OBJECT_ID":"2023-167K","EPOCH":"2026-03-23T10:36:43.208928","MEAN_MOTION":15.27565334,"ECCENTRICITY":7.67e-5,"INCLINATION":43.0003,"RA_OF_ASC_NODE":66.1279,"ARG_OF_PERICENTER":239.4681,"MEAN_ANOMALY":120.6095,"EPHEMERIS_TYPE":0,"CLASSIFICATION_TYPE":"U","NORAD_CAT_ID":58184,"ELEMENT_SET_NO":999,"REV_AT_EPOCH":13308,"BSTAR":0.00025002,"MEAN_MOTION_DOT":6.621e-5,"MEAN_MOTION_DDOT":0},{"OBJECT_NAME":"STARLINK-30793","OBJECT_ID":"2023-167L","EPOCH":"2026-03-23T09:52:17.005152","MEAN_MOTION":15.27580742,"ECCENTRICITY":0.000476,"INCLINATION":43.014,"RA_OF_ASC_NODE":65.8987,"ARG_OF_PERICENTER":263.4551,"MEAN_ANOMALY":96.5759,"EPHEMERIS_TYPE":0,"CLASSIFICATION_TYPE":"U","NORAD_CAT_ID":58185,"ELEMENT_SET_NO":999,"REV_AT_EPOCH":13308,"BSTAR":7.5333e-5,"MEAN_MOTION_DOT":1.81e-5,"MEAN_MOTION_DDOT":0},{"OBJECT_NAME":"STARLINK-30755","OBJECT_ID":"2023-167M","EPOCH":"2026-03-23T06:16:14.381184","MEAN_MOTION":15.27572732,"ECCENTRICITY":0.0001232,"INCLINATION":43.0018,"RA_OF_ASC_NODE":66.5017,"ARG_OF_PERICENTER":261.516,"MEAN_ANOMALY":98.5552,"EPHEMERIS_TYPE":0,"CLASSIFICATION_TYPE":"U","NORAD_CAT_ID":58186,"ELEMENT_SET_NO":999,"REV_AT_EPOCH":13306,"BSTAR":-5.1908e-6,"MEAN_MOTION_DOT":-4.05e-6,"MEAN_MOTION_DDOT":0},{"OBJECT_NAME":"STARLINK-30760","OBJECT_ID":"2023-167N","EPOCH":"2026-03-23T09:33:30.000096","MEAN_MOTION":15.26745915,"ECCENTRICITY":9.61e-5,"INCLINATION":43.0047,"RA_OF_ASC_NODE":65.7977,"ARG_OF_PERICENTER":257.6799,"MEAN_ANOMALY":102.3945,"EPHEMERIS_TYPE":0,"CLASSIFICATION_TYPE":"U","NORAD_CAT_ID":58187,"ELEMENT_SET_NO":999,"REV_AT_EPOCH":13308,"BSTAR":-9.708e-5,"MEAN_MOTION_DOT":-2.863e-5,"MEAN_MOTION_DDOT":0},{"OBJECT_NAME":"STARLINK-30826","OBJECT_ID":"2023-167P","EPOCH":"2026-03-22T22:51:21.685248","MEAN_MOTION":15.27568119,"ECCENTRICITY":0.00013622,"INCLINATION":43.0034,"RA_OF_ASC_NODE":68.479,"ARG_OF_PERICENTER":263.1838,"MEAN_ANOMALY":96.8858,"EPHEMERIS_TYPE":0,"CLASSIFICATION_TYPE":"U","NORAD_CAT_ID":58188,"ELEMENT_SET_NO":999,"REV_AT_EPOCH":13301,"BSTAR":-9.5596188e-5,"MEAN_MOTION_DOT":-2.891e-5,"MEAN_MOTION_DDOT":0},{"OBJECT_NAME":"STARLINK-30796","OBJECT_ID":"2023-167Q","EPOCH":"2026-03-23T09:18:59.590944","MEAN_MOTION":15.27579771,"ECCENTRICITY":0.0001156,"INCLINATION":43.0011,"RA_OF_ASC_NODE":65.7298,"ARG_OF_PERICENTER":275.5339,"MEAN_ANOMALY":84.538,"EPHEMERIS_TYPE":0,"CLASSIFICATION_TYPE":"U","NORAD_CAT_ID":58189,"ELEMENT_SET_NO":999,"REV_AT_EPOCH":13308,"BSTAR":1.1259e-5,"MEAN_MOTION_DOT":4.8e-7,"MEAN_MOTION_DDOT":0},{"OBJECT_NAME":"STARLINK-30820","OBJECT_ID":"2023-167R","EPOCH":"2026-03-23T10:47:37.632768","MEAN_MOTION":15.27504795,"ECCENTRICITY":5.7e-5,"INCLINATION":43.0048,"RA_OF_ASC_NODE":65.3245,"ARG_OF_PERICENTER":9.9636,"MEAN_ANOMALY":350.1227,"EPHEMERIS_TYPE":0,"CLASSIFICATION_TYPE":"U","NORAD_CAT_ID":58190,"ELEMENT_SET_NO":999,"REV_AT_EPOCH":13309,"BSTAR":0.00038179,"MEAN_MOTION_DOT":0.00010235,"MEAN_MOTION_DDOT":0},{"OBJECT_NAME":"STARLINK-30785","OBJECT_ID":"2023-167S","EPOCH":"2026-03-23T10:07:06.481920","MEAN_MOTION":15.27583141,"ECCENTRICITY":8.22e-5,"INCLINATION":43.0019,"RA_OF_ASC_NODE":65.9802,"ARG_OF_PERICENTER":266.0156,"MEAN_ANOMALY":94.0601,"EPHEMERIS_TYPE":0,"CLASSIFICATION_TYPE":"U","NORAD_CAT_ID":58191,"ELEMENT_SET_NO":999,"REV_AT_EPOCH":13308,"BSTAR":-0.00011045,"MEAN_MOTION_DOT":-3.3e-5,"MEAN_MOTION_DDOT":0},{"OBJECT_NAME":"STARLINK-30807","OBJECT_ID":"2023-167T","EPOCH":"2026-03-23T09:55:59.951712","MEAN_MOTION":15.27580355,"ECCENTRICITY":0.0001699,"INCLINATION":43.0053,"RA_OF_ASC_NODE":65.9215,"ARG_OF_PERICENTER":254.9679,"MEAN_ANOMALY":105.0984,"EPHEMERIS_TYPE":0,"CLASSIFICATION_TYPE":"U","NORAD_CAT_ID":58192,"ELEMENT_SET_NO":999,"REV_AT_EPOCH":13308,"BSTAR":0.0012138,"MEAN_MOTION_DOT":0.00033292,"MEAN_MOTION_DDOT":0}]
