STARLINK-30824          
1 58176U 23167B   26082.42289309 -.00001956  00000+0 -61594-4 0  9992
2 58176  43.0028  65.9999 0000787 208.5369 151.5440 15.27566379133084
STARLINK-30791          
1 58177U 23167C   26082.25346799 -.00002306  00000+0 -76335-4 0  9990
2 58177  43.0009  66.4334 0000970 284.7862  75.2882 15.26734197133065
STARLINK-30810          
1 58178U 23167D   26082.44587035 -.00000954  00000+0 -25165-4 0  9994
2 58178  43.0020  65.3084 0000764 287.4462  72.6306 15.27570702133092
STARLINK-30819          
1 58179U 23167E   26082.41261343 -.00001663  00000+0 -50921-4 0  9999
2 58179  43.0068  65.9177 0001500 259.7662 100.3020 15.27582523133082
STARLINK-30806          
1 58180U 23167F   26081.68822822 -.00001215  00000+0 -34636-4 0  9992
2 58180  43.0051  69.9350 0001504 261.6444  98.4237 15.27574336132974
STARLINK-30821          
1 58181U 23167G   26081.94333677  .00002367  00000+0  95522-4 0  9995
2 58181  43.0075  68.4077 0001690 277.1166  82.9494 15.27576056133009
STARLINK-30778          
1 58182U 23167H   26082.40360969 -.00001833  00000+0 -57120-4 0  9993
2 58182  43.0035  65.8456 0000931 285.3343  74.7406 15.27568297133081
STARLINK-30809          
1 58183U 23167J   26081.26134766 -.00002254  00000+0 -72408-4 0  9995
2 58183  42.9999  72.7480 0001980 266.9504  93.1121 15.27567085132905
STARLINK-30801          
1 58184U 23167K   26082.44216677  .00006621  00000+0  25002-3 0  9996
2 58184  43.0003  66.1279 0000767 239.4681 120.6095 15.27565334133081
STARLINK-30793          
1 58185U 23167L   26082.41130793  .00001810  00000+0  75333-4 0  9996
2 58185  43.0140  65.8987 0004760 263.4551  96.5759 15.27580742133084
STARLINK-30755          
1 58186U 23167M   26082.26127756 -.00000405  00000+0 -51908-5 0  9999
2 58186  43.0018  66.5017 0001232 261.5160  98.5552 15.27572732133068
STARLINK-30760          
1 58187U 23167N   26082.39826389 -.00002863  00000+0 -97080-4 0  9992
2 58187  43.0047  65.7977 0000961 257.6799 102.3945 15.26745915133085
STARLINK-30826          
1 58188U 23167P   26081.95233432 -.00002891  00000+0 -95596-4 0  9996
2 58188  43.0034  68.4790 0001362 263.1838  96.8858 15.27568119133010
STARLINK-30796          
1 58189U 23167Q   26082.38818971  .00000048  00000+0  11259-4 0  9996
2 58189  43.0011  65.7298 0001156 275.5339  84.5380 15.27579771133080
STARLINK-30820          
1 58190U 23167R   26082.44974112  .00010235  00000+0  38179-3 0  9993
2 58190  43.0048  65.3245 0000570   9.9636 350.1227 15.27504795133095
STARLINK-30785          
1 58191U 23167S   26082.42160280 -.00003300  00000+0 -11045-3 0  9995
2 58191  43.0019  65.9802 0000822 266.0156  94.0601 15.27583141133083
STARLINK-30807          
1 58192U 23167T   26082.41388833  .00033292  00000+0  12138-2 0  9995
2 58192  43.0053  65.9215 0001699 254.9679 105.0984 15.27580355133080
